[{"OBJECT_NAME":"STARLINK-34507","OBJECT_ID":"2025-129AB","EPOCH":"2026-01-18T22:00:03.000096","MEAN_MOTION":14.98326501,"ECCENTRICITY":0.00029415,"INCLINATION":69.9996,"RA_OF_ASC_NODE":199.825,"ARG_OF_PERICENTER":275.6387,"MEAN_ANOMALY":127.9253,"EPHEMERIS_TYPE":0,"CLASSIFICATION_TYPE":"U","NORAD_CAT_ID":64437,"ELEMENT_SET_NO":999,"REV_AT_EPOCH":577,"BSTAR":0.0034646401,"MEAN_MOTION_DOT":0.00041488,"MEAN_MOTION_DDOT":0},{"OBJECT_NAME":"STARLINK-34465","OBJECT_ID":"2025-130A","EPOCH":"2026-01-18T12:41:00.971808","MEAN_MOTION":15.30194772,"ECCENTRICITY":0.00010415,"INCLINATION":53.1587,"RA_OF_ASC_NODE":321.5021,"ARG_OF_PERICENTER":114.8431,"MEAN_ANOMALY":245.2678,"EPHEMERIS_TYPE":0,"CLASSIFICATION_TYPE":"U","NORAD_CAT_ID":64438,"ELEMENT_SET_NO":999,"REV_AT_EPOCH":3302,"BSTAR":0.00070410534,"MEAN_MOTION_DOT":0.00020549,"MEAN_MOTION_DDOT":0},{"OBJECT_NAME":"STARLINK-34456","OBJECT_ID":"2025-130B","EPOCH":"2026-01-18T23:24:11.399616","MEAN_MOTION":15.30214337,"ECCENTRICITY":0.0001384,"INCLINATION":53.1605,"RA_OF_ASC_NODE":319.3117,"ARG_OF_PERICENTER":78.8006,"MEAN_ANOMALY":281.315,"EPHEMERIS_TYPE":0,"CLASSIFICATION_TYPE":"U","NORAD_CAT_ID":64439,"ELEMENT_SET_NO":999,"REV_AT_EPOCH":3309,"BSTAR":0.00072956425,"MEAN_MOTION_DOT":0.0002132,"MEAN_MOTION_DDOT":0},{"OBJECT_NAME":"STARLINK-34410","OBJECT_ID":"2025-130C","EPOCH":"2026-01-18T20:02:24.458784","MEAN_MOTION":15.3021321,"ECCENTRICITY":0.00010819,"INCLINATION":53.1601,"RA_OF_ASC_NODE":319.8603,"ARG_OF_PERICENTER":83.1378,"MEAN_ANOMALY":276.9746,"EPHEMERIS_TYPE":0,"CLASSIFICATION_TYPE":"U","NORAD_CAT_ID":64440,"ELEMENT_SET_NO":999,"REV_AT_EPOCH":3307,"BSTAR":0.00090897273,"MEAN_MOTION_DOT":0.0002667,"MEAN_MOTION_DDOT":0},{"OBJECT_NAME":"STARLINK-34453","OBJECT_ID":"2025-130D","EPOCH":"2026-01-18T13:03:49.025088","MEAN_MOTION":15.30179423,"ECCENTRICITY":0.00015335,"INCLINATION":53.161,"RA_OF_ASC_NODE":321.6011,"ARG_OF_PERICENTER":79.8913,"MEAN_ANOMALY":280.226,"EPHEMERIS_TYPE":0,"CLASSIFICATION_TYPE":"U","NORAD_CAT_ID":64441,"ELEMENT_SET_NO":999,"REV_AT_EPOCH":3302,"BSTAR":0.00069094783,"MEAN_MOTION_DOT":0.00020147,"MEAN_MOTION_DDOT":0},{"OBJECT_NAME":"STARLINK-34404","OBJECT_ID":"2025-130E","EPOCH":"2026-01-18T20:35:50.235648","MEAN_MOTION":15.30219873,"ECCENTRICITY":0.00013106,"INCLINATION":53.1608,"RA_OF_ASC_NODE":320.0027,"ARG_OF_PERICENTER":93.5761,"MEAN_ANOMALY":266.539,"EPHEMERIS_TYPE":0,"CLASSIFICATION_TYPE":"U","NORAD_CAT_ID":64442,"ELEMENT_SET_NO":999,"REV_AT_EPOCH":3307,"BSTAR":0.00095039158,"MEAN_MOTION_DOT":0.00027912,"MEAN_MOTION_DDOT":0},{"OBJECT_NAME":"STARLINK-34403","OBJECT_ID":"2025-130F","EPOCH":"2026-01-18T23:13:33.302784","MEAN_MOTION":15.30207218,"ECCENTRICITY":0.00010373,"INCLINATION":53.161,"RA_OF_ASC_NODE":319.2615,"ARG_OF_PERICENTER":45.5175,"MEAN_ANOMALY":314.5911,"EPHEMERIS_TYPE":0,"CLASSIFICATION_TYPE":"U","NORAD_CAT_ID":64443,"ELEMENT_SET_NO":999,"REV_AT_EPOCH":3309,"BSTAR":0.00094402771,"MEAN_MOTION_DOT":0.00027711,"MEAN_MOTION_DDOT":0},{"OBJECT_NAME":"STARLINK-34399","OBJECT_ID":"2025-130G","EPOCH":"2026-01-18T13:06:50.964480","MEAN_MOTION":15.30199781,"ECCENTRICITY":0.00010701,"INCLINATION":53.16,"RA_OF_ASC_NODE":321.6112,"ARG_OF_PERICENTER":90.5574,"MEAN_ANOMALY":269.5549,"EPHEMERIS_TYPE":0,"CLASSIFICATION_TYPE":"U","NORAD_CAT_ID":64444,"ELEMENT_SET_NO":999,"REV_AT_EPOCH":3302,"BSTAR":0.00083160223,"MEAN_MOTION_DOT":0.00024351,"MEAN_MOTION_DDOT":0},{"OBJECT_NAME":"STARLINK-34398","OBJECT_ID":"2025-130H","EPOCH":"2026-01-18T19:35:13.022880","MEAN_MOTION":15.30212075,"ECCENTRICITY":0.00011338,"INCLINATION":53.1597,"RA_OF_ASC_NODE":320.454,"ARG_OF_PERICENTER":90.5936,"MEAN_ANOMALY":269.5195,"EPHEMERIS_TYPE":0,"CLASSIFICATION_TYPE":"U","NORAD_CAT_ID":64445,"ELEMENT_SET_NO":999,"REV_AT_EPOCH":3306,"BSTAR":0.00096642334,"MEAN_MOTION_DOT":0.00028384,"MEAN_MOTION_DDOT":0},{"OBJECT_NAME":"STARLINK-34402","OBJECT_ID":"2025-130J","EPOCH":"2026-01-18T19:53:17.464704","MEAN_MOTION":15.30218918,"ECCENTRICITY":0.00015891,"INCLINATION":53.1599,"RA_OF_ASC_NODE":319.82,"ARG_OF_PERICENTER":82.5787,"MEAN_ANOMALY":277.5394,"EPHEMERIS_TYPE":0,"CLASSIFICATION_TYPE":"U","NORAD_CAT_ID":64446,"ELEMENT_SET_NO":999,"REV_AT_EPOCH":3307,"BSTAR":0.0012222709,"MEAN_MOTION_DOT":0.00036038,"MEAN_MOTION_DDOT":0},{"OBJECT_NAME":"STARLINK-34450","OBJECT_ID":"2025-130K","EPOCH":"2026-01-18T19:32:10.535712","MEAN_MOTION":15.30207717,"ECCENTRICITY":6.508e-5,"INCLINATION":53.1606,"RA_OF_ASC_NODE":320.4389,"ARG_OF_PERICENTER":103.2907,"MEAN_ANOMALY":256.8166,"EPHEMERIS_TYPE":0,"CLASSIFICATION_TYPE":"U","NORAD_CAT_ID":64447,"ELEMENT_SET_NO":999,"REV_AT_EPOCH":3306,"BSTAR":0.00059004276,"MEAN_MOTION_DOT":0.00017161,"MEAN_MOTION_DDOT":0},{"OBJECT_NAME":"STARLINK-34433","OBJECT_ID":"2025-130L","EPOCH":"2026-01-18T19:42:48.925440","MEAN_MOTION":15.30208672,"ECCENTRICITY":9.731e-5,"INCLINATION":53.162,"RA_OF_ASC_NODE":320.4828,"ARG_OF_PERICENTER":79.701,"MEAN_ANOMALY":280.41,"EPHEMERIS_TYPE":0,"CLASSIFICATION_TYPE":"U","NORAD_CAT_ID":64448,"ELEMENT_SET_NO":999,"REV_AT_EPOCH":3306,"BSTAR":0.00069054869,"MEAN_MOTION_DOT":0.00020154,"MEAN_MOTION_DDOT":0},{"OBJECT_NAME":"STARLINK-34459","OBJECT_ID":"2025-130M","EPOCH":"2026-01-18T22:22:02.735904","MEAN_MOTION":15.30217709,"ECCENTRICITY":0.00011127,"INCLINATION":53.1595,"RA_OF_ASC_NODE":319.7485,"ARG_OF_PERICENTER":88.4605,"MEAN_ANOMALY":271.6523,"EPHEMERIS_TYPE":0,"CLASSIFICATION_TYPE":"U","NORAD_CAT_ID":64449,"ELEMENT_SET_NO":999,"REV_AT_EPOCH":3308,"BSTAR":0.0008797681,"MEAN_MOTION_DOT":0.00025802,"MEAN_MOTION_DDOT":0},{"OBJECT_NAME":"STARLINK-34361","OBJECT_ID":"2025-130N","EPOCH":"2026-01-18T23:48:30.064896","MEAN_MOTION":15.30242461,"ECCENTRICITY":0.00011538,"INCLINATION":53.1601,"RA_OF_ASC_NODE":319.4113,"ARG_OF_PERICENTER":102.151,"MEAN_ANOMALY":257.962,"EPHEMERIS_TYPE":0,"CLASSIFICATION_TYPE":"U","NORAD_CAT_ID":64450,"ELEMENT_SET_NO":999,"REV_AT_EPOCH":3426,"BSTAR":0.0011355657,"MEAN_MOTION_DOT":0.00033469,"MEAN_MOTION_DDOT":0},{"OBJECT_NAME":"STARLINK-34392","OBJECT_ID":"2025-130P","EPOCH":"2026-01-18T13:23:33.861984","MEAN_MOTION":15.3019816,"ECCENTRICITY":0.00010919,"INCLINATION":53.1611,"RA_OF_ASC_NODE":321.6821,"ARG_OF_PERICENTER":83.9802,"MEAN_ANOMALY":276.1323,"EPHEMERIS_TYPE":0,"CLASSIFICATION_TYPE":"U","NORAD_CAT_ID":64451,"ELEMENT_SET_NO":999,"REV_AT_EPOCH":3302,"BSTAR":0.00072754046,"MEAN_MOTION_DOT":0.00021249,"MEAN_MOTION_DDOT":0},{"OBJECT_NAME":"STARLINK-34367","OBJECT_ID":"2025-130Q","EPOCH":"2026-01-18T23:19:37.927200","MEAN_MOTION":15.30215357,"ECCENTRICITY":0.00013245,"INCLINATION":53.1609,"RA_OF_ASC_NODE":319.2889,"ARG_OF_PERICENTER":76.7206,"MEAN_ANOMALY":283.3943,"EPHEMERIS_TYPE":0,"CLASSIFICATION_TYPE":"U","NORAD_CAT_ID":64452,"ELEMENT_SET_NO":999,"REV_AT_EPOCH":3308,"BSTAR":0.00087437721,"MEAN_MOTION_DOT":0.00025639,"MEAN_MOTION_DDOT":0}]
