STARLINK-34507          
1 64437U 25129AB  26018.91670139  .00041488  00000+0  34646-2 0  9995
2 64437  69.9996 199.8250 0002941 275.6387 127.9253 14.98326501  5779
STARLINK-34465          
1 64438U 25130A   26018.52848347  .00020549  00000+0  70411-3 0  9999
2 64438  53.1587 321.5021 0001041 114.8431 245.2678 15.30194772 33029
STARLINK-34456          
1 64439U 25130B   26018.97513194  .00021320  00000+0  72956-3 0  9992
2 64439  53.1605 319.3117 0001384  78.8006 281.3150 15.30214337 33092
STARLINK-34410          
1 64440U 25130C   26018.83500531  .00026670  00000+0  90897-3 0  9997
2 64440  53.1601 319.8603 0001081  83.1378 276.9746 15.30213210 33078
STARLINK-34453          
1 64441U 25130D   26018.54431742  .00020147  00000+0  69095-3 0  9992
2 64441  53.1610 321.6011 0001533  79.8913 280.2260 15.30179423 33023
STARLINK-34404          
1 64442U 25130E   26018.85822032  .00027912  00000+0  95039-3 0  9997
2 64442  53.1608 320.0027 0001310  93.5761 266.5390 15.30219873 33078
STARLINK-34403          
1 64443U 25130F   26018.96774656  .00027711  00000+0  94403-3 0  9999
2 64443  53.1610 319.2615 0001037  45.5175 314.5911 15.30207218 33092
STARLINK-34399          
1 64444U 25130G   26018.54642320  .00024351  00000+0  83160-3 0  9991
2 64444  53.1600 321.6112 0001070  90.5574 269.5549 15.30199781 33025
STARLINK-34398          
1 64445U 25130H   26018.81612295  .00028384  00000+0  96642-3 0  9999
2 64445  53.1597 320.4540 0001133  90.5936 269.5195 15.30212075 33068
STARLINK-34402          
1 64446U 25130J   26018.82867436  .00036038  00000+0  12223-2 0  9997
2 64446  53.1599 319.8200 0001589  82.5787 277.5394 15.30218918 33079
STARLINK-34450          
1 64447U 25130K   26018.81401083  .00017161  00000+0  59004-3 0  9994
2 64447  53.1606 320.4389 0000650 103.2907 256.8166 15.30207717 33069
STARLINK-34433          
1 64448U 25130L   26018.82139960  .00020154  00000+0  69055-3 0  9991
2 64448  53.1620 320.4828 0000973  79.7010 280.4100 15.30208672 33066
STARLINK-34459          
1 64449U 25130M   26018.93197611  .00025802  00000+0  87977-3 0  9999
2 64449  53.1595 319.7485 0001112  88.4605 271.6523 15.30217709 33085
STARLINK-34361          
1 64450U 25130N   26018.99201464  .00033469  00000+0  11356-2 0  9994
2 64450  53.1601 319.4113 0001153 102.1510 257.9620 15.30242461 34263
STARLINK-34392          
1 64451U 25130P   26018.55803081  .00021249  00000+0  72754-3 0  9993
2 64451  53.1611 321.6821 0001091  83.9802 276.1323 15.30198160 33029
STARLINK-34367          
1 64452U 25130Q   26018.97196675  .00025639  00000+0  87438-3 0  9996
2 64452  53.1609 319.2889 0001324  76.7206 283.3943 15.30215357 33083
